GLOBALSTAR M094         
1 39074U 13005C   25195.97032752 -.00000091  00000+0  72091-4 0  9992
2 39074  51.9959  97.5250 0000730  30.2352 329.8557 12.62262784575888
GLOBALSTAR M096         
1 39075U 13005D   25195.58753000 -.00000101  00000+0  13745-4 0  9999
2 39075  52.0059 147.2255 0000462 355.9607   4.1256 12.62265589574752
GLOBALSTAR M078         
1 39076U 13005E   25195.48201110 -.00000105  00000+0 -69580-5 0  9993
2 39076  51.9849 232.0223 0000805 221.9210 138.1594 12.62259623573360
GLOBALSTAR M095         
1 39077U 13005F   25195.58734124 -.00000101  00000+0  17480-4 0  9997
2 39077  51.9775 228.8827 0000385 252.1466 107.9358 12.62268286573237
GLOBALSTAR M087         
1 52888U 22064A   25195.92087415 -.00000108  00000+0 -20000-4 0  9999
2 52888  52.0012   9.2669 0001082 105.2689 254.8298 12.63725710148541
